{
    "_id" : "5633a6c27840ba431f86f5ed",
    "pinCode" : "504202",
    "taluk" : "Kaddam (Peddur)",
    "districtName" : "Adilabad",
    "stateName" : "TELANGANA",
    "_class" : "org.krams.domain.CityZip"
}
{
    "_id" : "5633a6c27840ba431f86f59e",
    "pinCode" : "504202",
    "taluk" : "Khanapur",
    "districtName" : "Adilabad",
    "stateName" : "TELANGANA",
    "_class" : "org.krams.domain.CityZip"
}
{
    "_id" : "5633a6c27840ba431f86f5bb",
    "pinCode" : "504202",
    "taluk" : "Khanapur",
    "districtName" : "Adilabad",
    "stateName" : "TELANGANA",
    "_class" : "org.krams.domain.CityZip"
}
{
    "_id" : "5633a6c27840ba431f86f5f8",
    "pinCode" : "504202",
    "taluk" : "Khanapur",
    "districtName" : "Adilabad",
    "stateName" : "TELANGANA",
    "_class" : "org.krams.domain.CityZip"
}
{
    "_id" : "5633a6c27840ba431f86f6a1",
    "pinCode" : "504202",
    "taluk" : "Khanapur",
    "districtName" : "Adilabad",
    "stateName" : "TELANGANA",
    "_class" : "org.krams.domain.CityZip"
}
{
    "_id" : "5633a6c27840ba431f86f6ad",
    "pinCode" : "504202",
    "taluk" : "Khanapur",
    "districtName" : "Adilabad",
    "stateName" : "TELANGANA",
    "_class" : "org.krams.domain.CityZip"
}
{
    "_id" : "5633a6c27840ba431f86f6db",
    "pinCode" : "504202",
    "taluk" : "Khanapur",
    "districtName" : "Adilabad",
    "stateName" : "TELANGANA",
    "_class" : "org.krams.domain.CityZip"
}
{
    "_id" : "5633a6c27840ba431f86f710",
    "pinCode" : "504202",
    "taluk" : "Khanapur",
    "districtName" : "Adilabad",
    "stateName" : "TELANGANA",
    "_class" : "org.krams.domain.CityZip"
}
{
    "_id" : "5633a6c27840ba431f86f73d",
    "pinCode" : "504202",
    "taluk" : "Khanapur",
    "districtName" : "Adilabad",
    "stateName" : "TELANGANA",
    "_class" : "org.krams.domain.CityZip"
}
